{"type": "FeatureCollection", "features": [{"type": "Feature", "properties": {"norad_id": 66315, "name": "SENTINEL-1D", "group": "last-30-days", "lat": 69.47131351701337, "lon": -38.908716443580225, "alt_km": 686.3425754076025, "timestamp": "2025-12-04T13:51:59.225038+00:00", "meta": {"OBJECT_NAME": "SENTINEL-1D", "OBJECT_ID": "2025-251A", "EPOCH": "2025-12-03T14:30:47.068416", "MEAN_MOTION": 14.5991103, "ECCENTRICITY": 0.00026458, "INCLINATION": 98.1924, "RA_OF_ASC_NODE": 342.7567, "ARG_OF_PERICENTER": 152.8376, "MEAN_ANOMALY": 207.2963, "EPHEMERIS_TYPE": 0, "CLASSIFICATION_TYPE": "U", "NORAD_CAT_ID": 66315, "ELEMENT_SET_NO": 999, "REV_AT_EPOCH": 420, "BSTAR": 8.0054337e-05, "MEAN_MOTION_DOT": 3.37e-06, "MEAN_MOTION_DDOT": 0}, "tle": {"line1": "1 66315U 25251A   25337.60471144  .00000337  00000+0  80054-4 0  9996", "line2": "2 66315  98.1924 342.7567 0002645 152.8376 207.2963 14.59911030  4207"}}, "geometry": {"type": "Point", "coordinates": [-38.908716443580225, 69.47131351701337]}}, {"type": "Feature", "properties": {"norad_id": 66316, "name": "QPS-SAR-14 (YACHIHOKO-I)", "group": "last-30-days", "lat": -35.76744986702932, "lon": -6.686723707074417, "alt_km": 581.2960843146066, "timestamp": "2025-12-04T13:51:59.225093+00:00", "meta": {"OBJECT_NAME": "QPS-SAR-14 (YACHIHOKO-I)", "OBJECT_ID": "2025-252A", "EPOCH": "2025-12-04T03:11:32.570304", "MEAN_MOTION": 14.97560514, "ECCENTRICITY": 0.00068288, "INCLINATION": 42.0034, "RA_OF_ASC_NODE": 122.5741, "ARG_OF_PERICENTER": 91.9223, "MEAN_ANOMALY": 268.2384, "EPHEMERIS_TYPE": 0, "CLASSIFICATION_TYPE": "U", "NORAD_CAT_ID": 66316, "ELEMENT_SET_NO": 999, "REV_AT_EPOCH": 424, "BSTAR": 0.0010610944, "MEAN_MOTION_DOT": 0.00012436, "MEAN_MOTION_DDOT": 0}, "tle": {"line1": "1 66316U 25252A   25338.13301586  .00012436  00000+0  10611-2 0  9992", "line2": "2 66316  42.0034 122.5741 0006828  91.9223 268.2384 14.97560514  4244"}}, "geometry": {"type": "Point", "coordinates": [-6.686723707074417, -35.76744986702932]}}, {"type": "Feature", "properties": {"norad_id": 66317, "name": "ELECTRON R/B", "group": "last-30-days", "lat": 12.253420531474351, "lon": -94.07812033784944, "alt_km": 218.673402827294, "timestamp": "2025-12-04T13:51:59.225110+00:00", "meta": {"OBJECT_NAME": "ELECTRON R/B", "OBJECT_ID": "2025-252B", "EPOCH": "2025-12-03T17:54:17.702208", "MEAN_MOTION": 16.11372677, "ECCENTRICITY": 0.00810811, "INCLINATION": 41.986, "RA_OF_ASC_NODE": 105.3311, "ARG_OF_PERICENTER": 73.5218, "MEAN_ANOMALY": 287.4538, "EPHEMERIS_TYPE": 0, "CLASSIFICATION_TYPE": "U", "NORAD_CAT_ID": 66317, "ELEMENT_SET_NO": 999, "REV_AT_EPOCH": 440, "BSTAR": 0.0017947301, "MEAN_MOTION_DOT": 0.03381088, "MEAN_MOTION_DDOT": 8.186283e-06}, "tle": {"line1": "1 66317U 25252B   25337.74603822  .03381088  81863-5  17947-2 0  9993", "line2": "2 66317  41.9860 105.3311 0081081  73.5218 287.4538 16.11372677  4407"}}, "geometry": {"type": "Point", "coordinates": [-94.07812033784944, 12.253420531474351]}}, {"type": "Feature", "properties": {"norad_id": 66319, "name": "STARLINK-35442", "group": "last-30-days", "lat": -41.464787121492186, "lon": -75.6101766991415, "alt_km": 446.55707118830287, "timestamp": "2025-12-04T13:51:59.225124+00:00", "meta": {"OBJECT_NAME": "STARLINK-35442", "OBJECT_ID": "2025-253A", "EPOCH": "2025-12-04T00:00:02.000160", "MEAN_MOTION": 15.40760986, "ECCENTRICITY": 0.00016164, "INCLINATION": 43.0012, "RA_OF_ASC_NODE": 36.2403, "ARG_OF_PERICENTER": 263.9906, "MEAN_ANOMALY": 23.9749, "EPHEMERIS_TYPE": 0, "CLASSIFICATION_TYPE": "U", "NORAD_CAT_ID": 66319, "ELEMENT_SET_NO": 999, "REV_AT_EPOCH": 562, "BSTAR": -0.0033150496, "MEAN_MOTION_DOT": -0.0013661, "MEAN_MOTION_DDOT": 0}, "tle": {"line1": "1 66319U 25253A   25338.00002315 -.00136610  00000+0 -33150-2 0  9996", "line2": "2 66319  43.0012  36.2403 0001616 263.9906  23.9749 15.40760986  5627"}}, "geometry": {"type": "Point", "coordinates": [-75.6101766991415, -41.464787121492186]}}, {"type": "Feature", "properties": {"norad_id": 66320, "name": "STARLINK-34616", "group": "last-30-days", "lat": 39.600936747965434, "lon": 95.08867904376083, "alt_km": 414.12222900036704, "timestamp": "2025-12-04T13:51:59.225160+00:00", "meta": {"OBJECT_NAME": "STARLINK-34616", "OBJECT_ID": "2025-253B", "EPOCH": "2025-12-03T20:32:36.860352", "MEAN_MOTION": 15.4882756, "ECCENTRICITY": 0.000321, "INCLINATION": 43.0001, "RA_OF_ASC_NODE": 36.7018, "ARG_OF_PERICENTER": 337.973, "MEAN_ANOMALY": 22.0991, "EPHEMERIS_TYPE": 0, "CLASSIFICATION_TYPE": "U", "NORAD_CAT_ID": 66320, "ELEMENT_SET_NO": 999, "REV_AT_EPOCH": 563, "BSTAR": -0.0018285587, "MEAN_MOTION_DOT": -0.00099902, "MEAN_MOTION_DDOT": 0}, "tle": {"line1": "1 66320U 25253B   25337.85598218 -.00099902  00000+0 -18286-2 0  9997", "line2": "2 66320  43.0001  36.7018 0003210 337.9730  22.0991 15.48827560  5633"}}, "geometry": {"type": "Point", "coordinates": [95.08867904376083, 39.600936747965434]}}, {"type": "Feature", "properties": {"norad_id": 66321, "name": "STARLINK-34615", "group": "last-30-days", "lat": 28.70174348757535, "lon": 67.65549919966644, "alt_km": 410.3384325467423, "timestamp": "2025-12-04T13:51:59.225175+00:00", "meta": {"OBJECT_NAME": "STARLINK-34615", "OBJECT_ID": "2025-253C", "EPOCH": "2025-12-04T08:00:01.999872", "MEAN_MOTION": 15.5169483, "ECCENTRICITY": 0.0001517, "INCLINATION": 43, "RA_OF_ASC_NODE": 33.1024, "ARG_OF_PERICENTER": 277.9146, "MEAN_ANOMALY": 200.3228, "EPHEMERIS_TYPE": 0, "CLASSIFICATION_TYPE": "U", "NORAD_CAT_ID": 66321, "ELEMENT_SET_NO": 999, "REV_AT_EPOCH": 562, "BSTAR": -0.0277086, "MEAN_MOTION_DOT": -0.01529676, "MEAN_MOTION_DDOT": 0}, "tle": {"line1": "1 66321U 25253C   25338.33335648 -.01529676  00000+0 -27709-1 0  9994", "line2": "2 66321  43.0000  33.1024 0001517 277.9146 200.3228 15.51694830  5622"}}, "geometry": {"type": "Point", "coordinates": [67.65549919966644, 28.70174348757535]}}, {"type": "Feature", "properties": {"norad_id": 66322, "name": "STARLINK-35292", "group": "last-30-days", "lat": -38.67264277326319, "lon": -26.369776254301257, "alt_km": 446.56965826654414, "timestamp": "2025-12-04T13:51:59.225187+00:00", "meta": {"OBJECT_NAME": "STARLINK-35292", "OBJECT_ID": "2025-253D", "EPOCH": "2025-12-04T08:00:01.999872", "MEAN_MOTION": 15.40868781, "ECCENTRICITY": 0.00010704, "INCLINATION": 43.0005, "RA_OF_ASC_NODE": 34.2306, "ARG_OF_PERICENTER": 255.9816, "MEAN_ANOMALY": 120.2822, "EPHEMERIS_TYPE": 0, "CLASSIFICATION_TYPE": "U", "NORAD_CAT_ID": 66322, "ELEMENT_SET_NO": 999, "REV_AT_EPOCH": 557, "BSTAR": -0.0069342139, "MEAN_MOTION_DOT": -0.00281116, "MEAN_MOTION_DDOT": 0}, "tle": {"line1": "1 66322U 25253D   25338.33335648 -.00281116  00000+0 -69342-2 0  9998", "line2": "2 66322  43.0005  34.2306 0001070 255.9816 120.2822 15.40868781  5577"}}, "geometry": {"type": "Point", "coordinates": [-26.369776254301257, -38.67264277326319]}}, {"type": "Feature", "properties": {"norad_id": 66323, "name": "STARLINK-35309", "group": "last-30-days", "lat": 42.93267367573109, "lon": 125.70900663503525, "alt_km": 408.63211793660685, "timestamp": "2025-12-04T13:51:59.225199+00:00", "meta": {"OBJECT_NAME": "STARLINK-35309", "OBJECT_ID": "2025-253E", "EPOCH": "2025-12-03T12:44:13.575552", "MEAN_MOTION": 15.5062735, "ECCENTRICITY": 0.00017369, "INCLINATION": 42.9999, "RA_OF_ASC_NODE": 38.5588, "ARG_OF_PERICENTER": 269.0685, "MEAN_ANOMALY": 90.9976, "EPHEMERIS_TYPE": 0, "CLASSIFICATION_TYPE": "U", "NORAD_CAT_ID": 66323, "ELEMENT_SET_NO": 999, "REV_AT_EPOCH": 550, "BSTAR": 0.0016514731, "MEAN_MOTION_DOT": 0.00097932, "MEAN_MOTION_DDOT": 0}, "tle": {"line1": "1 66323U 25253E   25337.53071268  .00097932  00000+0  16515-2 0  9998", "line2": "2 66323  42.9999  38.5588 0001736 269.0685  90.9976 15.50627350  5508"}}, "geometry": {"type": "Point", "coordinates": [125.70900663503525, 42.93267367573109]}}, {"type": "Feature", "properties": {"norad_id": 66324, "name": "STARLINK-35506", "group": "last-30-days", "lat": 42.71582130685683, "lon": 114.66864910237419, "alt_km": 408.60515244614, "timestamp": "2025-12-04T13:51:59.225213+00:00", "meta": {"OBJECT_NAME": "STARLINK-35506", "OBJECT_ID": "2025-253F", "EPOCH": "2025-12-03T12:46:12.432576", "MEAN_MOTION": 15.5059009, "ECCENTRICITY": 8.705e-05, "INCLINATION": 43.0006, "RA_OF_ASC_NODE": 38.5692, "ARG_OF_PERICENTER": 276.2742, "MEAN_ANOMALY": 83.8019, "EPHEMERIS_TYPE": 0, "CLASSIFICATION_TYPE": "U", "NORAD_CAT_ID": 66324, "ELEMENT_SET_NO": 999, "REV_AT_EPOCH": 550, "BSTAR": 0.00045167229, "MEAN_MOTION_DOT": 0.00026255, "MEAN_MOTION_DDOT": 0}, "tle": {"line1": "1 66324U 25253F   25337.53208834  .00026255  00000+0  45167-3 0  9996", "line2": "2 66324  43.0006  38.5692 0000870 276.2742  83.8019 15.50590090  5507"}}, "geometry": {"type": "Point", "coordinates": [114.66864910237419, 42.71582130685683]}}, {"type": "Feature", "properties": {"norad_id": 66325, "name": "STARLINK-35504", "group": "last-30-days", "lat": 13.85120233574206, "lon": 47.9534539523473, "alt_km": 442.2273918165738, "timestamp": "2025-12-04T13:51:59.225225+00:00", "meta": {"OBJECT_NAME": "STARLINK-35504", "OBJECT_ID": "2025-253G", "EPOCH": "2025-12-04T08:00:01.999872", "MEAN_MOTION": 15.40702268, "ECCENTRICITY": 0.00010674, "INCLINATION": 43.0005, "RA_OF_ASC_NODE": 34.0191, "ARG_OF_PERICENTER": 266.4653, "MEAN_ANOMALY": 196.9248, "EPHEMERIS_TYPE": 0, "CLASSIFICATION_TYPE": "U", "NORAD_CAT_ID": 66325, "ELEMENT_SET_NO": 999, "REV_AT_EPOCH": 557, "BSTAR": -0.0017776701, "MEAN_MOTION_DOT": -0.0007385, "MEAN_MOTION_DDOT": 0}, "tle": {"line1": "1 66325U 25253G   25338.33335648 -.00073850  00000+0 -17777-2 0  9990", "line2": "2 66325  43.0005  34.0191 0001067 266.4653 196.9248 15.40702268  5571"}}, "geometry": {"type": "Point", "coordinates": [47.9534539523473, 13.85120233574206]}}]}